<?xml version="1.0" ?>
<kml xmlns="http://www.opengis.net/kml/2.2">
	<Document>
		<Placemark>
			<name>Punta Arenas</name>
			<Point>
				<coordinates>-70.907705,-53.1633778,0</coordinates>
			</Point>
		</Placemark>
		<Placemark>
			<name>Buenos Aires</name>
			<Point>
				<coordinates>-58.3816,-34.6037,0</coordinates>
			</Point>
		</Placemark>
		<Placemark>
			<name>Cordoba</name>
			<Point>
				<coordinates>-64.1888,-31.4201,0</coordinates>
			</Point>
		</Placemark>
		<Placemark>
			<name>Puerto Montt</name>
			<Point>
				<coordinates>-72.9396,-41.4693,0</coordinates>
			</Point>
		</Placemark>
		<Placemark>
			<name>Santiago</name>
			<Point>
				<coordinates>-70.6483,-33.4569,0</coordinates>
			</Point>
		</Placemark>
		<Placemark>
			<name>Antofagasta</name>
			<Point>
				<coordinates>-70.4,-23.65,0</coordinates>
			</Point>
		</Placemark>
		<Placemark>
			<name>Lima</name>
			<Point>
				<coordinates>-77.0428,-12.0464,0</coordinates>
			</Point>
		</Placemark>
		<Placemark>
			<name>La Paz</name>
			<Point>
				<coordinates>-68.1193,-16.4897,0</coordinates>
			</Point>
		</Placemark>
		<Placemark>
			<name>Quito</name>
			<Point>
				<coordinates>-78.4678,-0.1807,0</coordinates>
			</Point>
		</Placemark>
		<Placemark>
			<name>Cali</name>
			<Point>
				<coordinates>-76.532,3.4516,0</coordinates>
			</Point>
		</Placemark>
		<Placemark>
			<name>Medellín</name>
			<Point>
				<coordinates>-75.5658153,6.2476376,0</coordinates>
			</Point>
		</Placemark>
		<Placemark>
			<name>Panama City</name>
			<Point>
				<coordinates>-79.5198696,8.9823792,0</coordinates>
			</Point>
		</Placemark>
		<Placemark>
			<name>Mexico City</name>
			<Point>
				<coordinates>-99.1013498,19.2464696,0</coordinates>
			</Point>
		</Placemark>
		<Placemark>
			<name>Los Angeles</name>
			<Point>
				<coordinates>-118.242643,34.0549076,0</coordinates>
			</Point>
		</Placemark>
		<Placemark>
			<name>Denver</name>
			<Point>
				<coordinates>-104.990251,39.7392358,0</coordinates>
			</Point>
		</Placemark>
		<Placemark>
			<name>Dallas</name>
			<Point>
				<coordinates>-96.7969879,32.7766642,0</coordinates>
			</Point>
		</Placemark>
		<Placemark>
			<name>Saint Louis</name>
			<Point>
				<coordinates>-90.1982439,38.627428,0</coordinates>
			</Point>
		</Placemark>
		<Placemark>
			<name>Chicago</name>
			<Point>
				<coordinates>-87.6323879,41.88325,0</coordinates>
			</Point>
		</Placemark>
		<Placemark>
			<name>New York</name>
			<Point>
				<coordinates>-74.0059728,40.7127753,0</coordinates>
			</Point>
		</Placemark>
		<Placemark>
			<name>Ottawa</name>
			<Point>
				<coordinates>-75.7003397,45.4200572,0</coordinates>
			</Point>
		</Placemark>
		<Placemark>
			<name>Manitoba</name>
			<Point>
				<coordinates>-98.8138763,53.7608608,0</coordinates>
			</Point>
		</Placemark>
		<Placemark>
			<name>Saskatchewan</name>
			<Point>
				<coordinates>-106.4508639,52.9399159,0</coordinates>
			</Point>
		</Placemark>
		<Placemark>
			<name>Fort Nelson</name>
			<Point>
				<coordinates>-122.69,58.8053,0</coordinates>
			</Point>
		</Placemark>
		<Placemark>
			<name>Whitehorse</name>
			<Point>
				<coordinates>-135.0568,60.7212,0</coordinates>
			</Point>
		</Placemark>
		<Placemark>
			<name>Yukon</name>
			<Point>
				<coordinates>-135.0,64.2823274,0</coordinates>
			</Point>
		</Placemark>
		<Placemark>
			<name>Fairbanks</name>
			<Point>
				<coordinates>-147.7199756,64.8400511,0</coordinates>
			</Point>
		</Placemark>
		<Placemark>
			<name>Unalakleet</name>
			<Point>
				<coordinates>-160.7925128,63.8765975,0</coordinates>
			</Point>
		</Placemark>
		<Placemark>
			<name>Uelen</name>
			<Point>
				<coordinates>-169.8223184,66.1611863,0</coordinates>
			</Point>
		</Placemark>
		<Placemark>
			<name>Yakutsk</name>
			<Point>
				<coordinates>129.7422193,62.0396912,0</coordinates>
			</Point>
		</Placemark>
		<Placemark>
			<name>Ulaanbaatar</name>
			<Point>
				<coordinates>106.9155007,47.9220509,0</coordinates>
			</Point>
		</Placemark>
		<Placemark>
			<name>Aktau</name>
			<Point>
				<coordinates>51.2120512,43.671863,0</coordinates>
			</Point>
		</Placemark>
		<Placemark>
			<name>Baku</name>
			<Point>
				<coordinates>49.8671,40.4093,0</coordinates>
			</Point>
		</Placemark>
		<Placemark>
			<name>Ashgabat</name>
			<Point>
				<coordinates>58.3833,37.9601,0</coordinates>
			</Point>
		</Placemark>
		<Placemark>
			<name>Tehran</name>
			<Point>
				<coordinates>51.389,35.6892,0</coordinates>
			</Point>
		</Placemark>
		<Placemark>
			<name>Tbilisi</name>
			<Point>
				<coordinates>44.8015168,41.6938026,0</coordinates>
			</Point>
		</Placemark>
		<Placemark>
			<name>Istanbul</name>
			<Point>
				<coordinates>28.9783589,41.0082376,0</coordinates>
			</Point>
		</Placemark>
		<Placemark>
			<name>Budapest</name>
			<Point>
				<coordinates>19.040235,47.497912,0</coordinates>
			</Point>
		</Placemark>
		<Placemark>
			<name>Vienna</name>
			<Point>
				<coordinates>16.3738,48.2082,0</coordinates>
			</Point>
		</Placemark>
		<Placemark>
			<name>Berlin</name>
			<Point>
				<coordinates>13.405,52.52,0</coordinates>
			</Point>
		</Placemark>
		<Placemark>
			<name>Warsaw</name>
			<Point>
				<coordinates>21.0122,52.2297,0</coordinates>
			</Point>
		</Placemark>
		<Placemark>
			<name>Venice</name>
			<Point>
				<coordinates>12.3155,45.4408,0</coordinates>
			</Point>
		</Placemark>
		<Placemark>
			<name>Monaco</name>
			<Point>
				<coordinates>7.4246,43.7384,0</coordinates>
			</Point>
		</Placemark>
		<Placemark>
			<name>Paris</name>
			<Point>
				<coordinates>2.3513765,48.8575475,0</coordinates>
			</Point>
		</Placemark>
		<Placemark>
			<name>Kingston upon Hull</name>
			<Point>
				<coordinates>-0.3273025,53.7674909,0</coordinates>
			</Point>
		</Placemark>
		<Placemark>
			<name>punta_arenas_to_lima_coastal</name>
			<LineString>
				<tessellate>1</tessellate>
				<coordinates>-70.907705,-53.1633778,0 -72.9396,-41.4693,0 -70.6483,-33.4569,0 -70.4,-23.65,0 -77.0428,-12.0464,0</coordinates>
			</LineString>
		</Placemark>
		<Placemark>
			<name>punta_arenas_to_lima_andes</name>
			<LineString>
				<tessellate>1</tessellate>
				<coordinates>-70.907705,-53.1633778,0 -58.3816,-34.6037,0 -64.1888,-31.4201,0 -68.1193,-16.4897,0 -77.0428,-12.0464,0</coordinates>
			</LineString>
		</Placemark>
		<Placemark>
			<name>lima_to_los_angeles_main</name>
			<LineString>
				<tessellate>1</tessellate>
				<coordinates>-77.0428,-12.0464,0 -78.4678,-0.1807,0 -76.532,3.4516,0 -75.5658153,6.2476376,0 -79.5198696,8.9823792,0 -99.1013498,19.2464696,0</coordinates>
			</LineString>
		</Placemark>
		<Placemark>
			<name>mexico_city_to_chicago_direct</name>
			<LineString>
				<tessellate>1</tessellate>
				<coordinates>-99.1013498,19.2464696,0 -118.242643,34.0549076,0 -104.990251,39.7392358,0 -87.6323879,41.88325,0</coordinates>
			</LineString>
		</Placemark>
		<Placemark>
			<name>mexico_city_to_chicago_south</name>
			<LineString>
				<tessellate>1</tessellate>
				<coordinates>-99.1013498,19.2464696,0 -96.7969879,32.7766642,0 -90.1982439,38.627428,0 -87.6323879,41.88325,0</coordinates>
			</LineString>
		</Placemark>
		<Placemark>
			<name>chicago_to_yukon_prairie</name>
			<LineString>
				<tessellate>1</tessellate>
				<coordinates>-87.6323879,41.88325,0 -106.4508639,52.9399159,0 -135.0,64.2823274,0</coordinates>
			</LineString>
		</Placemark>
		<Placemark>
			<name>chicago_to_yukon_east</name>
			<LineString>
				<tessellate>1</tessellate>
				<coordinates>-87.6323879,41.88325,0 -74.0059728,40.7127753,0 -75.7003397,45.4200572,0 -98.8138763,53.7608608,0 -135.0,64.2823274,0</coordinates>
			</LineString>
		</Placemark>
		<Placemark>
			<name>chicago_to_yukon_arctic</name>
			<LineString>
				<tessellate>1</tessellate>
				<coordinates>-87.6323879,41.88325,0 -106.4508639,52.9399159,0 -122.69,58.8053,0 -135.0568,60.7212,0 -135.0,64.2823274,0</coordinates>
			</LineString>
		</Placemark>
		<Placemark>
			<name>yukon_to_aktau_main</name>
			<LineString>
				<tessellate>1</tessellate>
				<coordinates>-135.0,64.2823274,0 -147.7199756,64.8400511,0 -160.7925128,63.8765975,0 -169.8223184,66.1611863,0 129.7422193,62.0396912,0 106.9155007,47.9220509,0 51.2120512,43.671863,0</coordinates>
			</LineString>
		</Placemark>
		<Placemark>
			<name>aktau_to_budapest_caucasus</name>
			<LineString>
				<tessellate>1</tessellate>
				<coordinates>51.2120512,43.671863,0 49.8671,40.4093,0 44.8015168,41.6938026,0 28.9783589,41.0082376,0 19.040235,47.497912,0</coordinates>
			</LineString>
		</Placemark>
		<Placemark>
			<name>aktau_to_budapest_persia</name>
			<LineString>
				<tessellate>1</tessellate>
				<coordinates>51.2120512,43.671863,0 58.3833,37.9601,0 51.389,35.6892,0 19.040235,47.497912,0</coordinates>
			</LineString>
		</Placemark>
		<Placemark>
			<name>budapest_to_paris_central</name>
			<LineString>
				<tessellate>1</tessellate>
				<coordinates>19.040235,47.497912,0 16.3738,48.2082,0 13.405,52.52,0 2.3513765,48.8575475,0</coordinates>
			</LineString>
		</Placemark>
		<Placemark>
			<name>budapest_to_paris_north</name>
			<LineString>
				<tessellate>1</tessellate>
				<coordinates>19.040235,47.497912,0 21.0122,52.2297,0 13.405,52.52,0 2.3513765,48.8575475,0</coordinates>
			</LineString>
		</Placemark>
		<Placemark>
			<name>budapest_to_paris_south</name>
			<LineString>
				<tessellate>1</tessellate>
				<coordinates>19.040235,47.497912,0 12.3155,45.4408,0 7.4246,43.7384,0 2.3513765,48.8575475,0</coordinates>
			</LineString>
		</Placemark>
		<Placemark>
			<name>paris_to_kingston_main</name>
			<LineString>
				<tessellate>1</tessellate>
				<coordinates>2.3513765,48.8575475,0 -0.3273025,53.7674909,0</coordinates>
			</LineString>
		</Placemark>
	</Document>
</kml>
